[{"OBJECT_NAME":"STARLINK-31889","OBJECT_ID":"2024-097N","EPOCH":"2026-03-09T19:57:55.225152","MEAN_MOTION":15.2757221,"ECCENTRICITY":0.0001549,"INCLINATION":43.0011,"RA_OF_ASC_NODE":273.9797,"ARG_OF_PERICENTER":270.9288,"MEAN_ANOMALY":89.1386,"EPHEMERIS_TYPE":0,"CLASSIFICATION_TYPE":"U","NORAD_CAT_ID":59847,"ELEMENT_SET_NO":999,"REV_AT_EPOCH":10193,"BSTAR":5.134685e-6,"MEAN_MOTION_DOT":-1.21e-6,"MEAN_MOTION_DDOT":0},{"OBJECT_NAME":"COSMOS 546","OBJECT_ID":"1973-005A","EPOCH":"2026-03-09T21:40:39.247392","MEAN_MOTION":15.29707303,"ECCENTRICITY":0.00147738,"INCLINATION":50.6327,"RA_OF_ASC_NODE":289.914,"ARG_OF_PERICENTER":261.1516,"MEAN_ANOMALY":98.7778,"EPHEMERIS_TYPE":0,"CLASSIFICATION_TYPE":"U","NORAD_CAT_ID":6350,"ELEMENT_SET_NO":999,"REV_AT_EPOCH":92802,"BSTAR":9.142057e-5,"MEAN_MOTION_DOT":2.316e-5,"MEAN_MOTION_DDOT":0}]
